[{"OBJECT_NAME":"POLYITAN-1","OBJECT_ID":"2014-033AJ","EPOCH":"2026-03-09T22:27:50.258304","MEAN_MOTION":15.29568085,"ECCENTRICITY":0.00093607,"INCLINATION":98.1053,"RA_OF_ASC_NODE":86.0432,"ARG_OF_PERICENTER":127.248,"MEAN_ANOMALY":232.9614,"EPHEMERIS_TYPE":0,"CLASSIFICATION_TYPE":"U","NORAD_CAT_ID":40042,"ELEMENT_SET_NO":999,"REV_AT_EPOCH":63840,"BSTAR":0.00083772474,"MEAN_MOTION_DOT":0.00024003,"MEAN_MOTION_DDOT":0},{"OBJECT_NAME":"STARLINK-32583","OBJECT_ID":"2024-209S","EPOCH":"2026-03-09T13:13:16.048416","MEAN_MOTION":15.30153869,"ECCENTRICITY":0.0001009,"INCLINATION":53.1558,"RA_OF_ASC_NODE":143.1872,"ARG_OF_PERICENTER":36.5308,"MEAN_ANOMALY":323.5761,"EPHEMERIS_TYPE":0,"CLASSIFICATION_TYPE":"U","NORAD_CAT_ID":61955,"ELEMENT_SET_NO":999,"REV_AT_EPOCH":7489,"BSTAR":0.00045789115,"MEAN_MOTION_DOT":0.00013207,"MEAN_MOTION_DDOT":0}]
